start=new Date('2023-03-29T00:00:00.000Z').valueOf();
sats=[{"OBJECT_ID":"2021-125R","PERIAPSIS":"538.921","REV_AT_EPOCH":"7394","MEAN_MOTION":"15.08851553","TLE_LINE2":"2 50171  53.2168  45.9038 0001141 110.1329 249.9786 15.08851553 73943","MEAN_ANOMALY":"249.9786","OBJECT_NAME":"STARLINK-3286","ECCENTRICITY":"0.00011410","TLE_LINE1":"1 50171U 21125R   23087.25644223  .00014165  00000-0  90598-3 0  9994","SEMIMAJOR_AXIS":"6917.845","COUNTRY_CODE":"US","MEAN_MOTION_DOT":"0.00014165","OBJECT_TYPE":"PAYLOAD","TIME_SYSTEM":"UTC","REF_FRAME":"TEME","CENTER_NAME":"EARTH","GP_ID":"229032603","APOAPSIS":"540.499","RCS_SIZE":"LARGE","LAUNCH_DATE":"2021-12-18","MEAN_ELEMENT_THEORY":"SGP4","DECAY_DATE":null,"MEAN_MOTION_DDOT":"0.0000000000000","NORAD_CAT_ID":"50171","INCLINATION":"53.2168","EPHEMERIS_TYPE":"0","EPOCH":"2023-03-28T06:09:16.608672","ELEMENT_SET_NO":"999","SITE":"AFWTR","BSTAR":"0.00090598000000","CLASSIFICATION_TYPE":"U","ARG_OF_PERICENTER":"110.1329","RA_OF_ASC_NODE":"45.9038","PERIOD":"95.437","FILE":"3873565"},{"TLE_LINE2":"2 50172  53.2192  42.7351 0001262  94.0242 266.0894 15.08841679 73568","OBJECT_ID":"2021-125S","PERIAPSIS":"538.867","REV_AT_EPOCH":"7356","MEAN_MOTION":"15.08841679","TLE_LINE1":"1 50172U 21125S   23087.96300311  .00001881  00000-0  13622-3 0  9994","SEMIMAJOR_AXIS":"6917.875","COUNTRY_CODE":"US","OBJECT_TYPE":"PAYLOAD","MEAN_MOTION_DOT":"0.00001881","TIME_SYSTEM":"UTC","MEAN_ANOMALY":"266.0894","OBJECT_NAME":"STARLINK-3287","ECCENTRICITY":"0.00012620","APOAPSIS":"540.613","GP_ID":"229043529","RCS_SIZE":"LARGE","LAUNCH_DATE":"2021-12-18","MEAN_ELEMENT_THEORY":"SGP4","DECAY_DATE":null,"MEAN_MOTION_DDOT":"0.0000000000000","CENTER_NAME":"EARTH","REF_FRAME":"TEME","BSTAR":"0.00013622000000","CLASSIFICATION_TYPE":"U","ARG_OF_PERICENTER":"94.0242","RA_OF_ASC_NODE":"42.7351","PERIOD":"95.437","FILE":"3873896","NORAD_CAT_ID":"50172","INCLINATION":"53.2192","EPHEMERIS_TYPE":"0","EPOCH":"2023-03-28T23:06:43.468704","SITE":"AFWTR","ELEMENT_SET_NO":"999"},{"ECCENTRICITY":"0.00010620","OBJECT_NAME":"STARLINK-3289","MEAN_ANOMALY":"269.7623","COUNTRY_CODE":"US","OBJECT_TYPE":"PAYLOAD","MEAN_MOTION_DOT":"0.00000056","TIME_SYSTEM":"UTC","SEMIMAJOR_AXIS":"6917.853","TLE_LINE1":"1 50173U 21125T   23087.99063076  .00000056  00000-0  21610-4 0  9992","MEAN_MOTION":"15.08848894","REV_AT_EPOCH":"7111","PERIAPSIS":"538.984","OBJECT_ID":"2021-125T","TLE_LINE2":"2 50173  53.2182  32.6069 0001062  90.3490 269.7623 15.08848894 71119","SITE":"AFWTR","ELEMENT_SET_NO":"999","EPOCH":"2023-03-28T23:46:30.497664","EPHEMERIS_TYPE":"0","NORAD_CAT_ID":"50173","INCLINATION":"53.2182","PERIOD":"95.437","FILE":"3873896","RA_OF_ASC_NODE":"32.6069","ARG_OF_PERICENTER":"90.3490","BSTAR":"0.00002161000000","CLASSIFICATION_TYPE":"U","REF_FRAME":"TEME","CENTER_NAME":"EARTH","MEAN_MOTION_DDOT":"0.0000000000000","MEAN_ELEMENT_THEORY":"SGP4","DECAY_DATE":null,"LAUNCH_DATE":"2021-12-18","GP_ID":"229043431","APOAPSIS":"540.453","RCS_SIZE":"LARGE"},{"FILE":"3873896","PERIOD":"95.437","RA_OF_ASC_NODE":"42.4831","ARG_OF_PERICENTER":"88.0820","CLASSIFICATION_TYPE":"U","BSTAR":"0.00078338000000","SITE":"AFWTR","ELEMENT_SET_NO":"999","EPOCH":"2023-03-29T00:26:12.405696","EPHEMERIS_TYPE":"0","NORAD_CAT_ID":"50174","INCLINATION":"53.2163","MEAN_MOTION_DDOT":"0.0000000000000","DECAY_DATE":null,"MEAN_ELEMENT_THEORY":"SGP4","LAUNCH_DATE":"2021-12-18","RCS_SIZE":"LARGE","GP_ID":"229043531","APOAPSIS":"540.528","REF_FRAME":"TEME","CENTER_NAME":"EARTH","TIME_SYSTEM":"UTC","MEAN_MOTION_DOT":"0.00012205","COUNTRY_CODE":"US","OBJECT_TYPE":"PAYLOAD","SEMIMAJOR_AXIS":"6917.851","TLE_LINE1":"1 50174U 21125U   23088.01819914  .00012205  00000-0  78338-3 0  9994","ECCENTRICITY":"0.00011750","OBJECT_NAME":"STARLINK-3292","MEAN_ANOMALY":"272.0306","TLE_LINE2":"2 50174  53.2163  42.4831 0001175  88.0820 272.0306 15.08849768 73579","MEAN_MOTION":"15.08849768","REV_AT_EPOCH":"7357","PERIAPSIS":"538.903","OBJECT_ID":"2021-125U"},{"CENTER_NAME":"EARTH","REF_FRAME":"TEME","LAUNCH_DATE":"2021-12-18","GP_ID":"229066993","APOAPSIS":"540.585","RCS_SIZE":"LARGE","MEAN_MOTION_DDOT":"0.0000000000000","MEAN_ELEMENT_THEORY":"SGP4","DECAY_DATE":null,"EPHEMERIS_TYPE":"0","NORAD_CAT_ID":"50175","INCLINATION":"53.2164","ELEMENT_SET_NO":"999","SITE":"AFWTR","EPOCH":"2023-03-28T21:47:13.844832","ARG_OF_PERICENTER":"96.3214","CLASSIFICATION_TYPE":"U","BSTAR":"0.00019428000000","PERIOD":"95.437","FILE":"3873921","RA_OF_ASC_NODE":"42.9772","OBJECT_ID":"2021-125V","REV_AT_EPOCH":"7404","MEAN_MOTION":"15.08845934","PERIAPSIS":"538.869","TLE_LINE2":"2 50175  53.2164  42.9772 0001240  96.3214 263.7919 15.08845934 74043","OBJECT_NAME":"STARLINK-3291","MEAN_ANOMALY":"263.7919","ECCENTRICITY":"0.00012400","TLE_LINE1":"1 50175U 21125V   23087.90779913  .00002806  00000-0  19428-3 0  9997","COUNTRY_CODE":"US","MEAN_MOTION_DOT":"0.00002806","OBJECT_TYPE":"PAYLOAD","TIME_SYSTEM":"UTC","SEMIMAJOR_AXIS":"6917.862"},{"CLASSIFICATION_TYPE":"U","BSTAR":"0.00092788000000","ARG_OF_PERICENTER":"94.7448","RA_OF_ASC_NODE":"42.4670","PERIOD":"95.437","FILE":"3873896","NORAD_CAT_ID":"50176","INCLINATION":"53.2163","EPHEMERIS_TYPE":"0","EPOCH":"2023-03-29T00:31:30.260928","ELEMENT_SET_NO":"999","SITE":"AFWTR","APOAPSIS":"540.481","GP_ID":"229043434","RCS_SIZE":"LARGE","LAUNCH_DATE":"2021-12-18","MEAN_ELEMENT_THEORY":"SGP4","DECAY_DATE":null,"MEAN_MOTION_DDOT":"0.0000000000000","CENTER_NAME":"EARTH","REF_FRAME":"TEME","TLE_LINE1":"1 50176U 21125W   23088.02187802  .00014515  00000-0  92788-3 0  9992","SEMIMAJOR_AXIS":"6917.840","COUNTRY_CODE":"US","MEAN_MOTION_DOT":"0.00014515","OBJECT_TYPE":"PAYLOAD","TIME_SYSTEM":"UTC","MEAN_ANOMALY":"265.3673","OBJECT_NAME":"STARLINK-3293","ECCENTRICITY":"0.00011230","TLE_LINE2":"2 50176  53.2163  42.4670 0001123  94.7448 265.3673 15.08853372 70974","OBJECT_ID":"2021-125W","PERIAPSIS":"538.928","REV_AT_EPOCH":"7097","MEAN_MOTION":"15.08853372"},{"EPHEMERIS_TYPE":"0","NORAD_CAT_ID":"50177","INCLINATION":"53.2167","SITE":"AFWTR","ELEMENT_SET_NO":"999","EPOCH":"2023-03-28T21:36:37.958976","ARG_OF_PERICENTER":"101.5450","BSTAR":"0.00012336000000","CLASSIFICATION_TYPE":"U","FILE":"3873921","PERIOD":"95.437","RA_OF_ASC_NODE":"43.0103","REF_FRAME":"TEME","CENTER_NAME":"EARTH","LAUNCH_DATE":"2021-12-18","RCS_SIZE":"LARGE","APOAPSIS":"540.654","GP_ID":"229067265","MEAN_MOTION_DDOT":"0.0000000000000","DECAY_DATE":null,"MEAN_ELEMENT_THEORY":"SGP4","OBJECT_NAME":"STARLINK-3282","MEAN_ANOMALY":"258.5691","ECCENTRICITY":"0.00013230","TLE_LINE1":"1 50177U 21125X   23087.90043934  .00001676  00000-0  12336-3 0  9991","TIME_SYSTEM":"UTC","COUNTRY_CODE":"US","OBJECT_TYPE":"PAYLOAD","MEAN_MOTION_DOT":"0.00001676","SEMIMAJOR_AXIS":"6917.874","OBJECT_ID":"2021-125X","MEAN_MOTION":"15.08842083","REV_AT_EPOCH":"7404","PERIAPSIS":"538.824","TLE_LINE2":"2 50177  53.2167  43.0103 0001323 101.5450 258.5691 15.08842083 74042"},{"TLE_LINE1":"1 50178U 21125Y   23087.91667824  .00020251  00000-0  12865-2 0  9999","SEMIMAJOR_AXIS":"6917.854","COUNTRY_CODE":"US","OBJECT_TYPE":"PAYLOAD","MEAN_MOTION_DOT":"0.00020251","TIME_SYSTEM":"UTC","MEAN_ANOMALY":"264.5973","OBJECT_NAME":"STARLINK-3284","ECCENTRICITY":"0.00012640","TLE_LINE2":"2 50178  53.2184  42.7961 0001264 118.6654 264.5973 15.08848773  1300","OBJECT_ID":"2021-125Y","PERIAPSIS":"538.844","REV_AT_EPOCH":"130","MEAN_MOTION":"15.08848773","BSTAR":"0.00128650000000","CLASSIFICATION_TYPE":"U","ARG_OF_PERICENTER":"118.6654","RA_OF_ASC_NODE":"42.7961","PERIOD":"95.437","FILE":"3873921","NORAD_CAT_ID":"50178","INCLINATION":"53.2184","EPHEMERIS_TYPE":"0","EPOCH":"2023-03-28T22:00:00.999936","SITE":"AFWTR","ELEMENT_SET_NO":"999","GP_ID":"229067516","APOAPSIS":"540.593","RCS_SIZE":"LARGE","LAUNCH_DATE":"2021-12-18","MEAN_ELEMENT_THEORY":"SGP4","DECAY_DATE":null,"MEAN_MOTION_DDOT":"0.0000000000000","REF_FRAME":"TEME","CENTER_NAME":"EARTH"},{"ARG_OF_PERICENTER":"94.7987","CLASSIFICATION_TYPE":"U","BSTAR":"0.00040046000000","PERIOD":"95.438","FILE":"3873896","RA_OF_ASC_NODE":"42.4497","EPHEMERIS_TYPE":"0","NORAD_CAT_ID":"50179","INCLINATION":"53.2167","SITE":"AFWTR","ELEMENT_SET_NO":"999","EPOCH":"2023-03-29T00:36:48.318336","LAUNCH_DATE":"2021-12-18","GP_ID":"229043432","APOAPSIS":"540.502","RCS_SIZE":"LARGE","MEAN_MOTION_DDOT":"0.0000000000000","MEAN_ELEMENT_THEORY":"SGP4","DECAY_DATE":null,"REF_FRAME":"TEME","CENTER_NAME":"EARTH","TLE_LINE1":"1 50179U 21125Z   23088.02555924  .00006091  00000-0  40046-3 0  9999","COUNTRY_CODE":"US","MEAN_MOTION_DOT":"0.00006091","OBJECT_TYPE":"PAYLOAD","TIME_SYSTEM":"UTC","SEMIMAJOR_AXIS":"6917.883","OBJECT_NAME":"STARLINK-3283","MEAN_ANOMALY":"265.3129","ECCENTRICITY":"0.00010890","TLE_LINE2":"2 50179  53.2167  42.4497 0001089  94.7987 265.3129 15.08839020 73576","OBJECT_ID":"2021-125Z","MEAN_MOTION":"15.08839020","REV_AT_EPOCH":"7357","PERIAPSIS":"538.995"},{"TLE_LINE2":"2 50180  53.2184  42.5240 0001073 102.4530 257.6582 15.08853140 70975","OBJECT_ID":"2021-125AA","PERIAPSIS":"538.963","REV_AT_EPOCH":"7097","MEAN_MOTION":"15.08853140","TLE_LINE1":"1 50180U 21125AA  23088.01179376  .00005987  00000-0  39381-3 0  9996","SEMIMAJOR_AXIS":"6917.840","TIME_SYSTEM":"UTC","COUNTRY_CODE":"US","MEAN_MOTION_DOT":"0.00005987","OBJECT_TYPE":"PAYLOAD","MEAN_ANOMALY":"257.6582","OBJECT_NAME":"STARLINK-3265","ECCENTRICITY":"0.00010730","RCS_SIZE":"LARGE","APOAPSIS":"540.448","GP_ID":"229043436","LAUNCH_DATE":"2021-12-18","DECAY_DATE":null,"MEAN_ELEMENT_THEORY":"SGP4","MEAN_MOTION_DDOT":"0.0000000000000","REF_FRAME":"TEME","CENTER_NAME":"EARTH","BSTAR":"0.00039381000000","CLASSIFICATION_TYPE":"U","ARG_OF_PERICENTER":"102.4530","RA_OF_ASC_NODE":"42.5240","FILE":"3873896","PERIOD":"95.437","INCLINATION":"53.2184","NORAD_CAT_ID":"50180","EPHEMERIS_TYPE":"0","EPOCH":"2023-03-29T00:16:58.980864","ELEMENT_SET_NO":"999","SITE":"AFWTR"}];
